STARLINK-3781           
1 52272U 22041M   26185.33336806  .01547447  00000+0  53851-1 0  9995
2 52272  53.1606 304.6346 0001121  77.7710 285.7183 15.26146353  5815
STARLINK-3782           
1 52273U 22041N   26185.33336806  .01249780  00000+0  51853-1 0  9995
2 52273  53.1598 295.3665 0000549 119.3905 199.9006 15.20338027  5813
STARLINK-3790           
1 52274U 22041P   26185.33336806  .01200347  00000+0  45830-1 0  9990
2 52274  53.1610 304.7958 0000914 101.2787 204.8132 15.23308109  5719
STARLINK-3784           
1 52275U 22041Q   26185.06628122 -.00005044  00000+0 -29879-3 0  9991
2 52275  53.1608 306.4880 0001261  73.0122 287.1007 15.08868180231938
STARLINK-3778           
1 52276U 22041R   26184.59157229  .00000373  00000+0  41528-4 0  9998
2 52276  53.1612 308.6213 0001310  86.7600 273.3541 15.08835952231868
STARLINK-3780           
1 52278U 22041T   26184.78661034  .00001523  00000+0  11375-3 0  9999
2 52278  53.1601 307.7450 0000972  80.8449 279.2652 15.08830876231891
STARLINK-3764           
1 52280U 22041V   26185.33336806  .01100117  00000+0  42007-1 0  9994
2 52280  53.1590 304.7565 0001417  62.0607   3.5952 15.23554923  5813
STARLINK-3779           
1 52281U 22041W   26184.72501031  .00000452  00000+0  46504-4 0  9990
2 52281  53.1600 308.0205 0001247  87.0551 273.0583 15.08834735231887
STARLINK-3783           
1 52282U 22041X   26185.33336806  .00049335  00000+0  28102-2 0  9990
2 52282  53.1591 295.2332 0001395  77.2300 137.4421 15.12356762  5812
STARLINK-3789           
1 52283U 22041Y   26185.04789477  .00000992  00000+0  80420-4 0  9994
2 52283  53.1574 306.5702 0001128  86.6443 273.4677 15.08831008231931
STARLINK-3561           
1 52284U 22041Z   26185.28319850  .00019157  00000+0  11317-2 0  9995
2 52284  53.1607 295.4217 0001286 273.4572  86.6274 15.11533576232100
STARLINK-3802           
1 52286U 22041AB  26185.08387975  .00132097  00000+0  78942-2 0  9994
2 52286  53.1610 296.3910 0001242 263.1901  96.8949 15.10067776232071
STARLINK-3822           
1 52287U 22041AC  26185.33336806  .01280673  00000+0  54033-1 0  9999
2 52287  53.1610 304.9925 0000395 106.3973 216.8396 15.20168311  5817
STARLINK-3776           
1 52288U 22041AD  26185.33336806  .00058297  00000+0  33964-2 0  9995
2 52288  53.1590 295.2695 0001255 125.3522 170.7859 15.11467158  5653
STARLINK-3751           
1 52289U 22041AE  26185.33336806  .01200738  00000+0  54530-1 0  9997
2 52289  53.1590 295.1239 0001059 102.2445 188.8425 15.17319506  5813
STARLINK-3772           
1 52290U 22041AF  26184.60719926  .00080226  00000+0  48966-2 0  9990
2 52290  53.1595 298.5404 0001401 102.7314 257.3835 15.09616768232003
STARLINK-3753           
1 52292U 22041AH  26184.93308783  .00113333  00000+0  67914-2 0  9993
2 52292  53.1589 297.0653 0001576 108.2027 251.9137 15.10077688232057
STARLINK-3771           
1 52293U 22041AJ  26184.87907044  .00120448  00000+0  72429-2 0  9994
2 52293  53.1610 297.3266 0001081  92.7479 267.3636 15.09909140232044
STARLINK-3777           
1 52294U 22041AK  26185.26064982  .00088353  00000+0  53384-2 0  9991
2 52294  53.1601 295.5943 0001552  74.0983 286.0180 15.09931703232102
STARLINK-3765           
1 52295U 22041AL  26185.33336806  .00060145  00000+0  34188-2 0  9997
2 52295  53.1599 295.2376 0000703  76.6054 275.8289 15.12339785  5807
STARLINK-3766           
1 52296U 22041AM  26184.98476943  .00113199  00000+0  67878-2 0  9995
2 52296  53.1622 296.8376 0002742  64.0236 296.1038 15.10054012232063
STARLINK-3758           
1 52297U 22041AN  26184.93677487  .00096691  00000+0  58254-2 0  9992
2 52297  53.1592 297.0512 0000410  60.5625 299.5407 15.09983463232053
STARLINK-3760           
1 52298U 22041AP  26185.01196488  .00001206  00000+0  93859-4 0  9990
2 52298  53.1599 296.3455 0001151  95.7543 264.3580 15.08835222232073
STARLINK-3769           
1 52300U 22041AR  26185.33336806  .00057993  00000+0  33167-2 0  9997
2 52300  53.1593 295.2298 0001269  93.4265  83.2006 15.12136706  5817
STARLINK-3768           
1 52301U 22041AS  26185.33336806  .00055198  00000+0  32261-2 0  9997
2 52301  53.1601 295.2513 0001605  71.9856 352.4184 15.11377777  5710
STARLINK-3564           
1 52302U 22041AT  26184.69217767  .00011748  00000+0  41778-3 0  9997
2 52302  53.1624 286.6900 0001085 116.3013 243.8099 15.29437124232173
STARLINK-3742           
1 52303U 22041AU  26184.64690579  .00163890  00000+0  98168-2 0  9999
2 52303  53.1600 298.3659 0002314  73.2964 286.8282 15.09804731233230
STARLINK-3744           
1 52304U 22041AV  26184.95964221  .00032440  00000+0  19917-2 0  9993
2 52304  53.1605 286.9493 0001461 122.2498 237.8636 15.09840175232199
STARLINK-3724           
1 52305U 22041AW  26185.33336806  .00060853  00000+0  34562-2 0  9991
2 52305  53.1597 295.3535 0002041  79.7987  46.4819 15.12362221  5667
STARLINK-3747           
1 52306U 22041AX  26184.55985631  .00047670  00000+0  29616-2 0  9997
2 52306  53.1616 288.7572 0002002 141.6490 218.4644 15.09225371233358
