OBJECT_NAME,OBJECT_ID,EPOCH,MEAN_MOTION,ECCENTRICITY,INCLINATION,RA_OF_ASC_NODE,ARG_OF_PERICENTER,MEAN_ANOMALY,EPHEMERIS_TYPE,CLASSIFICATION_TYPE,NORAD_CAT_ID,ELEMENT_SET_NO,REV_AT_EPOCH,BSTAR,MEAN_MOTION_DOT,MEAN_MOTION_DDOT
STARLINK-3781,2022-041M,2026-07-04T08:00:03.000384,15.26146353,.00011217,53.1606,304.6346,77.7710,285.7183,0,U,52272,999,581,.53850872E-1,.1547447E-1,0
STARLINK-3782,2022-041N,2026-07-04T08:00:03.000384,15.20338027,.00005495,53.1598,295.3665,119.3905,199.9006,0,U,52273,999,581,.51852907E-1,.124978E-1,0
STARLINK-3790,2022-041P,2026-07-04T08:00:03.000384,15.23308109,.00009147,53.1610,304.7958,101.2787,204.8132,0,U,52274,999,571,.45829564E-1,.1200347E-1,0
STARLINK-3784,2022-041Q,2026-07-04T01:35:26.697408,15.08868180,.00012618,53.1608,306.4880,73.0122,287.1007,0,U,52275,999,23193,-.29878639E-3,-.5044E-4,0
STARLINK-3778,2022-041R,2026-07-03T14:11:51.845856,15.08835952,.00013103,53.1612,308.6213,86.7600,273.3541,0,U,52276,999,23186,.41527682E-4,.373E-5,0
STARLINK-3780,2022-041T,2026-07-03T18:52:43.133376,15.08830876,.00009728,53.1601,307.7450,80.8449,279.2652,0,U,52278,999,23189,.11375233E-3,.1523E-4,0
STARLINK-3764,2022-041V,2026-07-04T08:00:03.000384,15.23554923,.00014176,53.1590,304.7565,62.0607,3.5952,0,U,52280,999,581,.42006528E-1,.1100117E-1,0
STARLINK-3779,2022-041W,2026-07-03T17:24:00.890784,15.08834735,.00012475,53.1600,308.0205,87.0551,273.0583,0,U,52281,999,23188,.46504265E-4,.452E-5,0
STARLINK-3783,2022-041X,2026-07-04T08:00:03.000384,15.12356762,.00013954,53.1591,295.2332,77.2300,137.4421,0,U,52282,999,581,.28102399E-2,.49335E-3,0
STARLINK-3789,2022-041Y,2026-07-04T01:08:58.108128,15.08831008,.00011281,53.1574,306.5702,86.6443,273.4677,0,U,52283,999,23193,.80419572E-4,.992E-5,0
STARLINK-3561,2022-041Z,2026-07-04T06:47:48.350400,15.11533576,.00012869,53.1607,295.4217,273.4572,86.6274,0,U,52284,999,23210,.11316766E-2,.19157E-3,0
STARLINK-3802,2022-041AB,2026-07-04T02:00:47.210400,15.10067776,.00012427,53.1610,296.3910,263.1901,96.8949,0,U,52286,999,23207,.78942127E-2,.132097E-2,0
STARLINK-3822,2022-041AC,2026-07-04T08:00:03.000384,15.20168311,.00003955,53.1610,304.9925,106.3973,216.8396,0,U,52287,999,581,.54032512E-1,.1280673E-1,0
STARLINK-3776,2022-041AD,2026-07-04T08:00:03.000384,15.11467158,.00012552,53.1590,295.2695,125.3522,170.7859,0,U,52288,999,565,.33963799E-2,.58297E-3,0
STARLINK-3751,2022-041AE,2026-07-04T08:00:03.000384,15.17319506,.00010592,53.1590,295.1239,102.2445,188.8425,0,U,52289,999,581,.54530299E-1,.1200738E-1,0
STARLINK-3772,2022-041AF,2026-07-03T14:34:22.016064,15.09616768,.00014013,53.1595,298.5404,102.7314,257.3835,0,U,52290,999,23200,.48966344E-2,.80226E-3,0
STARLINK-3753,2022-041AH,2026-07-03T22:23:38.788512,15.10077688,.00015768,53.1589,297.0653,108.2027,251.9137,0,U,52292,999,23205,.67914102E-2,.113333E-2,0
STARLINK-3771,2022-041AJ,2026-07-03T21:05:51.686016,15.09909140,.00010817,53.1610,297.3266,92.7479,267.3636,0,U,52293,999,23204,.72429329E-2,.120448E-2,0
STARLINK-3777,2022-041AK,2026-07-04T06:15:20.144448,15.09931703,.00015527,53.1601,295.5943,74.0983,286.0180,0,U,52294,999,23210,.53383704E-2,.88353E-3,0
STARLINK-3765,2022-041AL,2026-07-04T08:00:03.000384,15.12339785,.00007033,53.1599,295.2376,76.6054,275.8289,0,U,52295,999,580,.34187605E-2,.60145E-3,0
STARLINK-3766,2022-041AM,2026-07-03T23:38:04.078752,15.10054012,.00027428,53.1622,296.8376,64.0236,296.1038,0,U,52296,999,23206,.67877981E-2,.113199E-2,0
STARLINK-3758,2022-041AN,2026-07-03T22:28:57.348768,15.09983463,.00004109,53.1592,297.0512,60.5625,299.5407,0,U,52297,999,23205,.58253631E-2,.96691E-3,0
STARLINK-3760,2022-041AP,2026-07-04T00:17:13.765632,15.08835222,.00011513,53.1599,296.3455,95.7543,264.3580,0,U,52298,999,23207,.9385859E-4,.1206E-4,0
STARLINK-3769,2022-041AR,2026-07-04T08:00:03.000384,15.12136706,.00012698,53.1593,295.2298,93.4265,83.2006,0,U,52300,999,581,.33167393E-2,.57993E-3,0
STARLINK-3768,2022-041AS,2026-07-04T08:00:03.000384,15.11377777,.00016051,53.1601,295.2513,71.9856,352.4184,0,U,52301,999,571,.32260987E-2,.55198E-3,0
STARLINK-3564,2022-041AT,2026-07-03T16:36:44.150688,15.29437124,.00010852,53.1624,286.6900,116.3013,243.8099,0,U,52302,999,23217,.41777687E-3,.11748E-3,0
STARLINK-3742,2022-041AU,2026-07-03T15:31:32.660256,15.09804731,.00023146,53.1600,298.3659,73.2964,286.8282,0,U,52303,999,23323,.98168098E-2,.16389E-2,0
STARLINK-3744,2022-041AV,2026-07-03T23:01:53.086944,15.09840175,.0001461,53.1605,286.9493,122.2498,237.8636,0,U,52304,999,23219,.19917115E-2,.3244E-3,0
STARLINK-3724,2022-041AW,2026-07-04T08:00:03.000384,15.12362221,.00020414,53.1597,295.3535,79.7987,46.4819,0,U,52305,999,566,.3456249E-2,.60853E-3,0
STARLINK-3747,2022-041AX,2026-07-03T13:26:11.585184,15.09225371,.00020027,53.1616,288.7572,141.6490,218.4644,0,U,52306,999,23335,.29616476E-2,.4767E-3,0
